[{"OBJECT_NAME":"SHIJIAN-6 04B (SJ-6 04B)","OBJECT_ID":"2010-051B","EPOCH":"2026-03-09T23:26:29.179104","MEAN_MOTION":14.99121194,"ECCENTRICITY":0.00088219,"INCLINATION":97.8755,"RA_OF_ASC_NODE":73.3683,"ARG_OF_PERICENTER":293.8275,"MEAN_ANOMALY":66.2023,"EPHEMERIS_TYPE":0,"CLASSIFICATION_TYPE":"U","NORAD_CAT_ID":37180,"ELEMENT_SET_NO":999,"REV_AT_EPOCH":84081,"BSTAR":0.00010220627,"MEAN_MOTION_DOT":1.181e-5,"MEAN_MOTION_DDOT":0},{"OBJECT_NAME":"STARLINK-5882","OBJECT_ID":"2023-037Y","EPOCH":"2026-03-09T22:23:02.042592","MEAN_MOTION":14.98335627,"ECCENTRICITY":0.00024936,"INCLINATION":69.9989,"RA_OF_ASC_NODE":263.6765,"ARG_OF_PERICENTER":273.774,"MEAN_ANOMALY":86.3134,"EPHEMERIS_TYPE":0,"CLASSIFICATION_TYPE":"U","NORAD_CAT_ID":55936,"ELEMENT_SET_NO":999,"REV_AT_EPOCH":16451,"BSTAR":-5.538674e-6,"MEAN_MOTION_DOT":-1.59e-6,"MEAN_MOTION_DDOT":0}]
